{
    "links": {
        "self": "http://www.neowsapp.com/rest/v1/neo/3102766?api_key=iIulBulltgU6a56xZRHN4H3l9WmuAYTsLGpBGhQ2"
    },
    "id": "3102766",
    "neo_reference_id": "3102766",
    "name": "(2002 AD29)",
    "designation": "2002 AD29",
    "nasa_jpl_url": "http://ssd.jpl.nasa.gov/sbdb.cgi?sstr=3102766",
    "absolute_magnitude_h": 21.0,
    "estimated_diameter": {
        "kilometers": {
            "estimated_diameter_min": 0.1677084622,
            "estimated_diameter_max": 0.3750075218
        },
        "meters": {
            "estimated_diameter_min": 167.7084621628,
            "estimated_diameter_max": 375.0075217981
        },
        "miles": {
            "estimated_diameter_min": 0.1042091748,
            "estimated_diameter_max": 0.2330187988
        },
        "feet": {
            "estimated_diameter_min": 550.2246310023,
            "estimated_diameter_max": 1230.3396778159
        }
    },
    "is_potentially_hazardous_asteroid": false,
    "close_approach_data": [
        {
            "close_approach_date": "2001-08-02",
            "close_approach_date_full": "2001-Aug-02 02:04",
            "epoch_date_close_approach": 996717840000,
            "relative_velocity": {
                "kilometers_per_second": "16.346176295",
                "kilometers_per_hour": "58846.2346618261",
                "miles_per_hour": "36564.7617541775"
            },
            "miss_distance": {
                "astronomical": "0.3577944835",
                "lunar": "139.1820540815",
                "kilometers": "53525292.629350145",
                "miles": "33259074.596096201"
            },
            "orbiting_body": "Earth"
        },
        {
            "close_approach_date": "2001-12-28",
            "close_approach_date_full": "2001-Dec-28 12:53",
            "epoch_date_close_approach": 1009543980000,
            "relative_velocity": {
                "kilometers_per_second": "17.797024635",
                "kilometers_per_hour": "64069.2886859104",
                "miles_per_hour": "39810.1644059758"
            },
            "miss_distance": {
                "astronomical": "0.2813430936",
                "lunar": "109.4424634104",
                "kilometers": "42088327.541770632",
                "miles": "26152474.0281214416"
            },
            "orbiting_body": "Earth"
        }
    ],
    "orbital_data": {
        "orbit_id": "9",
        "orbit_determination_date": "2017-04-06 09:15:33",
        "first_observation_date": "2002-01-08",
        "last_observation_date": "2002-01-19",
        "data_arc_in_days": 11,
        "observations_used": 24,
        "orbit_uncertainty": "9",
        "minimum_orbit_intersection": ".250102",
        "jupiter_tisserand_invariant": "3.833",
        "epoch_osculation": "2452288.5",
        "eccentricity": ".4740441001113846",
        "semi_major_axis": "1.756454468732469",
        "inclination": "31.69086573321963",
        "ascending_node_longitude": "112.8122883150142",
        "orbital_period": "850.2639606707874",
        "perihelion_distance": ".9238175907155658",
        "perihelion_argument": "273.0838562538829",
        "aphelion_distance": "2.589091346749373",
        "perihelion_time": "2452204.253380534006",
        "mean_anomaly": "35.66984420206516",
        "mean_motion": ".4233979289396084",
        "equinox": "J2000",
        "orbit_class": {
            "orbit_class_type": "APO",
            "orbit_class_description": "Near-Earth asteroid orbits which cross the Earth’s orbit similar to that of 1862 Apollo",
            "orbit_class_range": "a (semi-major axis) > 1.0 AU; q (perihelion) < 1.017 AU"
        }
    },
    "is_sentry_object": false
}